CSG-3                   
1 67304U 26001A   26019.94866014  .00000664  00000+0  89117-4 0  9990
2 67304  97.8447 205.7455 0001614  88.2275 271.9123 14.82511497  2507
STARLINK-36490          
1 67305U 26002A   26019.91668981  .00073071  00000+0  47519-3 0  9993
2 67305  42.9985 245.7346 0001490 262.8418  48.2524 15.75014433  3636
STARLINK-36488          
1 67306U 26002B   26019.91668981  .00036878  00000+0  24223-3 0  9995
2 67306  42.9985 245.7293 0001890 275.2102  37.7968 15.75029321  3570
STARLINK-36481          
1 67307U 26002C   26019.91668981  .00060154  00000+0  39219-3 0  9991
2 67307  42.9985 245.7203 0001530 270.8650  45.9738 15.75022762  3570
STARLINK-36449          
1 67308U 26002D   26019.91668981  .00078419  00000+0  50892-3 0  9995
2 67308  42.9984 245.7151 0001550 258.5683  60.1457 15.75036956  3637
STARLINK-36482          
1 67309U 26002E   26019.91668981  .00024333  00000+0  16098-3 0  9992
2 67309  42.9985 245.6918 0001747 273.7491  54.5800 15.75048968  3571
STARLINK-36491          
1 67310U 26002F   26019.91668981  .00057081  00000+0  37238-3 0  9999
2 67310  42.9984 245.7254 0001422 274.7794  40.1378 15.75027315  3577
STARLINK-36495          
1 67311U 26002G   26019.91668981  .00126358  00000+0  81449-3 0  9997
2 67311  42.9988 245.7104 0002339 280.4798  40.1291 15.75007658  3732
STARLINK-36485          
1 67312U 26002H   26019.91668981  .00100153  00000+0  64831-3 0  9999
2 67312  42.9984 245.7058 0001539 273.8286  48.7622 15.75006229  3573
STARLINK-36445          
1 67313U 26002J   26019.91668981  .00008484  00000+0  58254-4 0  9997
2 67313  42.9984 245.6999 0001598 270.8749  53.6143 15.75050172  3730
STARLINK-36476          
1 67314U 26002K   26019.91668981 -.00017002  00000+0 -10766-3 0  9991
2 67314  42.9985 245.6961 0002066 271.7577  54.6446 15.75064787  3577
STARLINK-36463          
1 67315U 26002L   26019.91668981  .00035848  00000+0  23554-3 0  9997
2 67315  42.9986 245.6860 0001566 272.1307  58.1256 15.75033591  3631
