CCSDS_OMM_VERS = 2.0
CREATION_DATE  = 
ORIGINATOR     = 

OBJECT_NAME    = CSG-3
OBJECT_ID      = 2026-001A
CENTER_NAME    = EARTH
REF_FRAME      = TEME
TIME_SYSTEM    = UTC
MEAN_ELEMENT_THEORY = SGP/SGP4

EPOCH          = 2026-01-19T22:46:04.236096
MEAN_MOTION    = 14.82511497
ECCENTRICITY   = .00016144
INCLINATION    = 97.8447
RA_OF_ASC_NODE = 205.7455
ARG_OF_PERICENTER = 88.2275
MEAN_ANOMALY   = 271.9123

EPHEMERIS_TYPE = 0
CLASSIFICATION_TYPE = U
NORAD_CAT_ID   = 67304
ELEMENT_SET_NO = 999
REV_AT_EPOCH   = 250
BSTAR          = .89116545E-4
MEAN_MOTION_DOT = .664E-5
MEAN_MOTION_DDOT = 0

CCSDS_OMM_VERS = 2.0
CREATION_DATE  = 
ORIGINATOR     = 

OBJECT_NAME    = STARLINK-36490
OBJECT_ID      = 2026-002A
CENTER_NAME    = EARTH
REF_FRAME      = TEME
TIME_SYSTEM    = UTC
MEAN_ELEMENT_THEORY = SGP/SGP4

EPOCH          = 2026-01-19T22:00:01.999584
MEAN_MOTION    = 15.75014433
ECCENTRICITY   = .00014909
INCLINATION    = 42.9985
RA_OF_ASC_NODE = 245.7346
ARG_OF_PERICENTER = 262.8418
MEAN_ANOMALY   = 48.2524

EPHEMERIS_TYPE = 0
CLASSIFICATION_TYPE = U
NORAD_CAT_ID   = 67305
ELEMENT_SET_NO = 999
REV_AT_EPOCH   = 363
BSTAR          = .47519128E-3
MEAN_MOTION_DOT = .73071E-3
MEAN_MOTION_DDOT = 0

CCSDS_OMM_VERS = 2.0
CREATION_DATE  = 
ORIGINATOR     = 

OBJECT_NAME    = STARLINK-36488
OBJECT_ID      = 2026-002B
CENTER_NAME    = EARTH
REF_FRAME      = TEME
TIME_SYSTEM    = UTC
MEAN_ELEMENT_THEORY = SGP/SGP4

EPOCH          = 2026-01-19T22:00:01.999584
MEAN_MOTION    = 15.75029321
ECCENTRICITY   = .00018901
INCLINATION    = 42.9985
RA_OF_ASC_NODE = 245.7293
ARG_OF_PERICENTER = 275.2102
MEAN_ANOMALY   = 37.7968

EPHEMERIS_TYPE = 0
CLASSIFICATION_TYPE = U
NORAD_CAT_ID   = 67306
ELEMENT_SET_NO = 999
REV_AT_EPOCH   = 357
BSTAR          = .24222596E-3
MEAN_MOTION_DOT = .36878E-3
MEAN_MOTION_DDOT = 0

CCSDS_OMM_VERS = 2.0
CREATION_DATE  = 
ORIGINATOR     = 

OBJECT_NAME    = STARLINK-36481
OBJECT_ID      = 2026-002C
CENTER_NAME    = EARTH
REF_FRAME      = TEME
TIME_SYSTEM    = UTC
MEAN_ELEMENT_THEORY = SGP/SGP4

EPOCH          = 2026-01-19T22:00:01.999584
MEAN_MOTION    = 15.75022762
ECCENTRICITY   = .000153
INCLINATION    = 42.9985
RA_OF_ASC_NODE = 245.7203
ARG_OF_PERICENTER = 270.8650
MEAN_ANOMALY   = 45.9738

EPHEMERIS_TYPE = 0
CLASSIFICATION_TYPE = U
NORAD_CAT_ID   = 67307
ELEMENT_SET_NO = 999
REV_AT_EPOCH   = 357
BSTAR          = .39219328E-3
MEAN_MOTION_DOT = .60154E-3
MEAN_MOTION_DDOT = 0

CCSDS_OMM_VERS = 2.0
CREATION_DATE  = 
ORIGINATOR     = 

OBJECT_NAME    = STARLINK-36449
OBJECT_ID      = 2026-002D
CENTER_NAME    = EARTH
REF_FRAME      = TEME
TIME_SYSTEM    = UTC
MEAN_ELEMENT_THEORY = SGP/SGP4

EPOCH          = 2026-01-19T22:00:01.999584
MEAN_MOTION    = 15.75036956
ECCENTRICITY   = .00015505
INCLINATION    = 42.9984
RA_OF_ASC_NODE = 245.7151
ARG_OF_PERICENTER = 258.5683
MEAN_ANOMALY   = 60.1457

EPHEMERIS_TYPE = 0
CLASSIFICATION_TYPE = U
NORAD_CAT_ID   = 67308
ELEMENT_SET_NO = 999
REV_AT_EPOCH   = 363
BSTAR          = .50891976E-3
MEAN_MOTION_DOT = .78419E-3
MEAN_MOTION_DDOT = 0

CCSDS_OMM_VERS = 2.0
CREATION_DATE  = 
ORIGINATOR     = 

OBJECT_NAME    = STARLINK-36482
OBJECT_ID      = 2026-002E
CENTER_NAME    = EARTH
REF_FRAME      = TEME
TIME_SYSTEM    = UTC
MEAN_ELEMENT_THEORY = SGP/SGP4

EPOCH          = 2026-01-19T22:00:01.999584
MEAN_MOTION    = 15.75048968
ECCENTRICITY   = .00017478
INCLINATION    = 42.9985
RA_OF_ASC_NODE = 245.6918
ARG_OF_PERICENTER = 273.7491
MEAN_ANOMALY   = 54.5800

EPHEMERIS_TYPE = 0
CLASSIFICATION_TYPE = U
NORAD_CAT_ID   = 67309
ELEMENT_SET_NO = 999
REV_AT_EPOCH   = 357
BSTAR          = .16098132E-3
MEAN_MOTION_DOT = .24333E-3
MEAN_MOTION_DDOT = 0

CCSDS_OMM_VERS = 2.0
CREATION_DATE  = 
ORIGINATOR     = 

OBJECT_NAME    = STARLINK-36491
OBJECT_ID      = 2026-002F
CENTER_NAME    = EARTH
REF_FRAME      = TEME
TIME_SYSTEM    = UTC
MEAN_ELEMENT_THEORY = SGP/SGP4

EPOCH          = 2026-01-19T22:00:01.999584
MEAN_MOTION    = 15.75027315
ECCENTRICITY   = .0001422
INCLINATION    = 42.9984
RA_OF_ASC_NODE = 245.7254
ARG_OF_PERICENTER = 274.7794
MEAN_ANOMALY   = 40.1378

EPHEMERIS_TYPE = 0
CLASSIFICATION_TYPE = U
NORAD_CAT_ID   = 67310
ELEMENT_SET_NO = 999
REV_AT_EPOCH   = 357
BSTAR          = .37237789E-3
MEAN_MOTION_DOT = .57081E-3
MEAN_MOTION_DDOT = 0

CCSDS_OMM_VERS = 2.0
CREATION_DATE  = 
ORIGINATOR     = 

OBJECT_NAME    = STARLINK-36495
OBJECT_ID      = 2026-002G
CENTER_NAME    = EARTH
REF_FRAME      = TEME
TIME_SYSTEM    = UTC
MEAN_ELEMENT_THEORY = SGP/SGP4

EPOCH          = 2026-01-19T22:00:01.999584
MEAN_MOTION    = 15.75007658
ECCENTRICITY   = .00023395
INCLINATION    = 42.9988
RA_OF_ASC_NODE = 245.7104
ARG_OF_PERICENTER = 280.4798
MEAN_ANOMALY   = 40.1291

EPHEMERIS_TYPE = 0
CLASSIFICATION_TYPE = U
NORAD_CAT_ID   = 67311
ELEMENT_SET_NO = 999
REV_AT_EPOCH   = 373
BSTAR          = .81448576E-3
MEAN_MOTION_DOT = .126358E-2
MEAN_MOTION_DDOT = 0

CCSDS_OMM_VERS = 2.0
CREATION_DATE  = 
ORIGINATOR     = 

OBJECT_NAME    = STARLINK-36485
OBJECT_ID      = 2026-002H
CENTER_NAME    = EARTH
REF_FRAME      = TEME
TIME_SYSTEM    = UTC
MEAN_ELEMENT_THEORY = SGP/SGP4

EPOCH          = 2026-01-19T22:00:01.999584
MEAN_MOTION    = 15.75006229
ECCENTRICITY   = .00015395
INCLINATION    = 42.9984
RA_OF_ASC_NODE = 245.7058
ARG_OF_PERICENTER = 273.8286
MEAN_ANOMALY   = 48.7622

EPHEMERIS_TYPE = 0
CLASSIFICATION_TYPE = U
NORAD_CAT_ID   = 67312
ELEMENT_SET_NO = 999
REV_AT_EPOCH   = 357
BSTAR          = .64830653E-3
MEAN_MOTION_DOT = .100153E-2
MEAN_MOTION_DDOT = 0

CCSDS_OMM_VERS = 2.0
CREATION_DATE  = 
ORIGINATOR     = 

OBJECT_NAME    = STARLINK-36445
OBJECT_ID      = 2026-002J
CENTER_NAME    = EARTH
REF_FRAME      = TEME
TIME_SYSTEM    = UTC
MEAN_ELEMENT_THEORY = SGP/SGP4

EPOCH          = 2026-01-19T22:00:01.999584
MEAN_MOTION    = 15.75050172
ECCENTRICITY   = .00015982
INCLINATION    = 42.9984
RA_OF_ASC_NODE = 245.6999
ARG_OF_PERICENTER = 270.8749
MEAN_ANOMALY   = 53.6143

EPHEMERIS_TYPE = 0
CLASSIFICATION_TYPE = U
NORAD_CAT_ID   = 67313
ELEMENT_SET_NO = 999
REV_AT_EPOCH   = 373
BSTAR          = .5825372E-4
MEAN_MOTION_DOT = .8484E-4
MEAN_MOTION_DDOT = 0

CCSDS_OMM_VERS = 2.0
CREATION_DATE  = 
ORIGINATOR     = 

OBJECT_NAME    = STARLINK-36476
OBJECT_ID      = 2026-002K
CENTER_NAME    = EARTH
REF_FRAME      = TEME
TIME_SYSTEM    = UTC
MEAN_ELEMENT_THEORY = SGP/SGP4

EPOCH          = 2026-01-19T22:00:01.999584
MEAN_MOTION    = 15.75064787
ECCENTRICITY   = .00020661
INCLINATION    = 42.9985
RA_OF_ASC_NODE = 245.6961
ARG_OF_PERICENTER = 271.7577
MEAN_ANOMALY   = 54.6446

EPHEMERIS_TYPE = 0
CLASSIFICATION_TYPE = U
NORAD_CAT_ID   = 67314
ELEMENT_SET_NO = 999
REV_AT_EPOCH   = 357
BSTAR          = -.10765983E-3
MEAN_MOTION_DOT = -.17002E-3
MEAN_MOTION_DDOT = 0

CCSDS_OMM_VERS = 2.0
CREATION_DATE  = 
ORIGINATOR     = 

OBJECT_NAME    = STARLINK-36463
OBJECT_ID      = 2026-002L
CENTER_NAME    = EARTH
REF_FRAME      = TEME
TIME_SYSTEM    = UTC
MEAN_ELEMENT_THEORY = SGP/SGP4

EPOCH          = 2026-01-19T22:00:01.999584
MEAN_MOTION    = 15.75033591
ECCENTRICITY   = .00015665
INCLINATION    = 42.9986
RA_OF_ASC_NODE = 245.6860
ARG_OF_PERICENTER = 272.1307
MEAN_ANOMALY   = 58.1256

EPHEMERIS_TYPE = 0
CLASSIFICATION_TYPE = U
NORAD_CAT_ID   = 67315
ELEMENT_SET_NO = 999
REV_AT_EPOCH   = 363
BSTAR          = .23553849E-3
MEAN_MOTION_DOT = .35848E-3
MEAN_MOTION_DDOT = 0

